start=new Date('2022-01-22T00:00:00.000Z').valueOf();
sats=[{"MEAN_MOTION":"15.06399556","BSTAR":"0.00003110600000","APOAPSIS":"548.345","REF_FRAME":"TEME","TLE_LINE2":"2 47351  53.0547 312.0603 0001632  77.1840 282.9331 15.06399556 56288","ELEMENT_SET_NO":"999","PERIOD":"95.592","RCS_SIZE":"LARGE","PERIAPSIS":"546.085","GP_ID":"194327957","CLASSIFICATION_TYPE":"U","EPHEMERIS_TYPE":"0","SITE":"AFETR","MEAN_ANOMALY":"282.9331","COUNTRY_CODE":"US","ARG_OF_PERICENTER":"77.1840","MEAN_ELEMENT_THEORY":"SGP4","NORAD_CAT_ID":"47351","REV_AT_EPOCH":"5628","OBJECT_ID":"2021-005C","SEMIMAJOR_AXIS":"6925.350","MEAN_MOTION_DOT":"0.00000182","OBJECT_NAME":"STARLINK-2017","EPOCH":"2022-01-21T12:24:04.627008","INCLINATION":"53.0547","DECAY_DATE":null,"OBJECT_TYPE":"PAYLOAD","CENTER_NAME":"EARTH","FILE":"3279324","LAUNCH_DATE":"2021-01-20","TIME_SYSTEM":"UTC","RA_OF_ASC_NODE":"312.0603","TLE_LINE1":"1 47351U 21005C   22021.51672022  .00000182  00000-0  31106-4 0  9996","MEAN_MOTION_DDOT":"0.0000000000000","ECCENTRICITY":"0.00016320"},{"OBJECT_NAME":"STARLINK-2034","EPOCH":"2022-01-21T14:26:10.633344","MEAN_MOTION_DOT":"-0.00000803","TIME_SYSTEM":"UTC","FILE":"3279324","LAUNCH_DATE":"2021-01-20","CENTER_NAME":"EARTH","OBJECT_TYPE":"PAYLOAD","INCLINATION":"53.0559","DECAY_DATE":null,"ECCENTRICITY":"0.00016330","MEAN_MOTION_DDOT":"0.0000000000000","TLE_LINE1":"1 47352U 21005D   22021.60151196 -.00000803  00000-0 -34998-4 0  9995","RA_OF_ASC_NODE":"351.6894","PERIAPSIS":"546.100","RCS_SIZE":"LARGE","PERIOD":"95.593","ELEMENT_SET_NO":"999","TLE_LINE2":"2 47352  53.0559 351.6894 0001633  59.1102 301.0047 15.06394205 55737","REF_FRAME":"TEME","APOAPSIS":"548.362","BSTAR":"-0.00003499800000","MEAN_MOTION":"15.06394205","EPHEMERIS_TYPE":"0","GP_ID":"194328702","CLASSIFICATION_TYPE":"U","REV_AT_EPOCH":"5573","COUNTRY_CODE":"US","ARG_OF_PERICENTER":"59.1102","NORAD_CAT_ID":"47352","MEAN_ELEMENT_THEORY":"SGP4","SITE":"AFETR","MEAN_ANOMALY":"301.0047","SEMIMAJOR_AXIS":"6925.366","OBJECT_ID":"2021-005D"},{"GP_ID":"194333452","CLASSIFICATION_TYPE":"U","EPHEMERIS_TYPE":"0","PERIAPSIS":"545.944","RCS_SIZE":"LARGE","ELEMENT_SET_NO":"999","PERIOD":"95.593","REF_FRAME":"TEME","APOAPSIS":"548.603","TLE_LINE2":"2 47353  53.0559 297.1829 0001920  64.8395 295.2793 15.06380432 57153","MEAN_MOTION":"15.06380432","BSTAR":"-0.00010558000000","OBJECT_ID":"2021-005E","SEMIMAJOR_AXIS":"6925.409","REV_AT_EPOCH":"5715","COUNTRY_CODE":"US","ARG_OF_PERICENTER":"64.8395","NORAD_CAT_ID":"47353","MEAN_ELEMENT_THEORY":"SGP4","MEAN_ANOMALY":"295.2793","SITE":"AFETR","EPOCH":"2022-01-21T11:46:17.510016","OBJECT_NAME":"STARLINK-2045","MEAN_MOTION_DOT":"-0.00001853","MEAN_MOTION_DDOT":"0.0000000000000","ECCENTRICITY":"0.00019200","TLE_LINE1":"1 47353U 21005E   22021.49048044 -.00001853  00000-0 -10558-3 0  9991","RA_OF_ASC_NODE":"297.1829","TIME_SYSTEM":"UTC","CENTER_NAME":"EARTH","OBJECT_TYPE":"PAYLOAD","FILE":"3279385","LAUNCH_DATE":"2021-01-20","INCLINATION":"53.0559","DECAY_DATE":null},{"OBJECT_NAME":"STARLINK-2046","EPOCH":"2022-01-21T05:42:41.278464","MEAN_MOTION_DOT":"-0.00003895","TLE_LINE1":"1 47354U 21005F   22021.23797776 -.00003895  00000-0 -24282-3 0  9994","RA_OF_ASC_NODE":"318.3340","ECCENTRICITY":"0.00018100","MEAN_MOTION_DDOT":"0.0000000000000","LAUNCH_DATE":"2021-01-20","FILE":"3279324","CENTER_NAME":"EARTH","OBJECT_TYPE":"PAYLOAD","TIME_SYSTEM":"UTC","DECAY_DATE":null,"INCLINATION":"53.0537","EPHEMERIS_TYPE":"0","CLASSIFICATION_TYPE":"U","GP_ID":"194329207","PERIOD":"95.593","ELEMENT_SET_NO":"999","PERIAPSIS":"546.007","RCS_SIZE":"LARGE","BSTAR":"-0.00024282000000","MEAN_MOTION":"15.06384724","TLE_LINE2":"2 47354  53.0537 318.3340 0001810  55.8605 304.2556 15.06384724 56173","REF_FRAME":"TEME","APOAPSIS":"548.514","OBJECT_ID":"2021-005F","SEMIMAJOR_AXIS":"6925.395","REV_AT_EPOCH":"5617","SITE":"AFETR","MEAN_ANOMALY":"304.2556","COUNTRY_CODE":"US","NORAD_CAT_ID":"47354","MEAN_ELEMENT_THEORY":"SGP4","ARG_OF_PERICENTER":"55.8605"},{"CLASSIFICATION_TYPE":"U","GP_ID":"194328457","EPHEMERIS_TYPE":"0","MEAN_MOTION":"15.06405792","BSTAR":"0.00010960000000","APOAPSIS":"548.724","REF_FRAME":"TEME","TLE_LINE2":"2 47355  53.0429 303.6472 0002206  54.3953 305.7241 15.06405792 56375","ELEMENT_SET_NO":"999","PERIOD":"95.592","RCS_SIZE":"LARGE","PERIAPSIS":"545.668","OBJECT_ID":"2021-005G","SEMIMAJOR_AXIS":"6925.331","SITE":"AFETR","MEAN_ANOMALY":"305.7241","MEAN_ELEMENT_THEORY":"SGP4","COUNTRY_CODE":"US","NORAD_CAT_ID":"47355","ARG_OF_PERICENTER":"54.3953","REV_AT_EPOCH":"5637","MEAN_MOTION_DOT":"0.00001351","EPOCH":"2022-01-21T04:38:20.815872","OBJECT_NAME":"STARLINK-2047","RA_OF_ASC_NODE":"303.6472","TLE_LINE1":"1 47355U 21005G   22021.19329648  .00001351  00000-0  10960-3 0  9990","MEAN_MOTION_DDOT":"0.0000000000000","ECCENTRICITY":"0.00022060","DECAY_DATE":null,"INCLINATION":"53.0429","OBJECT_TYPE":"PAYLOAD","CENTER_NAME":"EARTH","FILE":"3279324","LAUNCH_DATE":"2021-01-20","TIME_SYSTEM":"UTC"},{"COUNTRY_CODE":"US","MEAN_ELEMENT_THEORY":"SGP4","ARG_OF_PERICENTER":"57.6524","NORAD_CAT_ID":"47356","MEAN_ANOMALY":"302.4631","SITE":"AFETR","REV_AT_EPOCH":"5610","SEMIMAJOR_AXIS":"6925.389","OBJECT_ID":"2021-005H","TLE_LINE2":"2 47356  53.0571 323.3276 0001712  57.6524 302.4631 15.06386847 56103","REF_FRAME":"TEME","APOAPSIS":"548.439","BSTAR":"-0.00026243000000","MEAN_MOTION":"15.06386847","RCS_SIZE":"LARGE","PERIAPSIS":"546.068","PERIOD":"95.593","ELEMENT_SET_NO":"999","EPHEMERIS_TYPE":"0","CLASSIFICATION_TYPE":"U","GP_ID":"194328203","DECAY_DATE":null,"INCLINATION":"53.0571","TIME_SYSTEM":"UTC","LAUNCH_DATE":"2021-01-20","FILE":"3279324","OBJECT_TYPE":"PAYLOAD","CENTER_NAME":"EARTH","ECCENTRICITY":"0.00017120","MEAN_MOTION_DDOT":"0.0000000000000","RA_OF_ASC_NODE":"323.3276","TLE_LINE1":"1 47356U 21005H   22021.23935806 -.00004187  00000-0 -26243-3 0  9998","MEAN_MOTION_DOT":"-0.00004187","EPOCH":"2022-01-21T05:44:40.536384","OBJECT_NAME":"STARLINK-2049"},{"NORAD_CAT_ID":"47357","COUNTRY_CODE":"US","MEAN_ELEMENT_THEORY":"SGP4","ARG_OF_PERICENTER":"53.3911","SITE":"AFETR","MEAN_ANOMALY":"306.7247","REV_AT_EPOCH":"5570","SEMIMAJOR_AXIS":"6925.398","OBJECT_ID":"2021-005J","REF_FRAME":"TEME","APOAPSIS":"548.537","TLE_LINE2":"2 47357  53.0539 352.6786 0001839  53.3911 306.7247 15.06383823 55708","MEAN_MOTION":"15.06383823","BSTAR":"-0.00012360000000","PERIAPSIS":"545.990","RCS_SIZE":"LARGE","ELEMENT_SET_NO":"999","PERIOD":"95.593","CLASSIFICATION_TYPE":"U","GP_ID":"194328957","EPHEMERIS_TYPE":"0","DECAY_DATE":null,"INCLINATION":"53.0539","TIME_SYSTEM":"UTC","CENTER_NAME":"EARTH","OBJECT_TYPE":"PAYLOAD","FILE":"3279324","LAUNCH_DATE":"2021-01-20","MEAN_MOTION_DDOT":"0.0000000000000","ECCENTRICITY":"0.00018390","RA_OF_ASC_NODE":"352.6786","TLE_LINE1":"1 47357U 21005J   22021.38035936 -.00002121  00000-0 -12360-3 0  9991","MEAN_MOTION_DOT":"-0.00002121","OBJECT_NAME":"STARLINK-2050","EPOCH":"2022-01-21T09:07:43.048704"},{"MEAN_MOTION_DOT":"-0.00004402","EPOCH":"2022-01-21T06:00:36.794304","OBJECT_NAME":"STARLINK-2055","ECCENTRICITY":"0.00017860","MEAN_MOTION_DDOT":"0.0000000000000","TLE_LINE1":"1 47358U 21005K   22021.25042586 -.00004402  00000-0 -27690-3 0  9993","RA_OF_ASC_NODE":"323.2667","INCLINATION":"53.0558","DECAY_DATE":null,"TIME_SYSTEM":"UTC","FILE":"3279324","LAUNCH_DATE":"2021-01-20","CENTER_NAME":"EARTH","OBJECT_TYPE":"PAYLOAD","EPHEMERIS_TYPE":"0","CLASSIFICATION_TYPE":"U","GP_ID":"194329707","TLE_LINE2":"2 47358  53.0558 323.2667 0001786  63.2147 296.9024 15.06382845 56105","REF_FRAME":"TEME","APOAPSIS":"548.503","BSTAR":"-0.00027690000000","MEAN_MOTION":"15.06382845","RCS_SIZE":"LARGE","PERIAPSIS":"546.029","PERIOD":"95.593","ELEMENT_SET_NO":"999","SEMIMAJOR_AXIS":"6925.401","OBJECT_ID":"2021-005K","COUNTRY_CODE":"US","ARG_OF_PERICENTER":"63.2147","MEAN_ELEMENT_THEORY":"SGP4","NORAD_CAT_ID":"47358","MEAN_ANOMALY":"296.9024","SITE":"AFETR","REV_AT_EPOCH":"5610"},{"MEAN_MOTION_DOT":"-0.00000240","OBJECT_NAME":"STARLINK-2069","EPOCH":"2022-01-21T14:13:34.179744","ECCENTRICITY":"0.00015030","MEAN_MOTION_DDOT":"0.0000000000000","TLE_LINE1":"1 47359U 21005L   22021.59275671 -.00000240  00000-0  27820-5 0  9996","RA_OF_ASC_NODE":"346.7288","DECAY_DATE":null,"INCLINATION":"53.0554","TIME_SYSTEM":"UTC","LAUNCH_DATE":"2021-01-20","FILE":"3279324","OBJECT_TYPE":"PAYLOAD","CENTER_NAME":"EARTH","EPHEMERIS_TYPE":"0","CLASSIFICATION_TYPE":"U","GP_ID":"194327958","TLE_LINE2":"2 47359  53.0554 346.7288 0001503  64.3484 295.7661 15.06394157 55803","REF_FRAME":"TEME","APOAPSIS":"548.272","BSTAR":"0.00000278200000","MEAN_MOTION":"15.06394157","PERIAPSIS":"546.191","RCS_SIZE":"LARGE","PERIOD":"95.593","ELEMENT_SET_NO":"999","SEMIMAJOR_AXIS":"6925.366","OBJECT_ID":"2021-005L","MEAN_ELEMENT_THEORY":"SGP4","COUNTRY_CODE":"US","NORAD_CAT_ID":"47359","ARG_OF_PERICENTER":"64.3484","MEAN_ANOMALY":"295.7661","SITE":"AFETR","REV_AT_EPOCH":"5580"},{"BSTAR":"0.00010432000000","MEAN_MOTION":"15.06402306","TLE_LINE2":"2 47360  53.0553 317.0065 0001916  62.6594 297.4590 15.06402306 56222","APOAPSIS":"548.533","REF_FRAME":"TEME","PERIOD":"95.592","ELEMENT_SET_NO":"999","RCS_SIZE":"LARGE","PERIAPSIS":"545.880","EPHEMERIS_TYPE":"0","GP_ID":"194328703","CLASSIFICATION_TYPE":"U","SITE":"AFETR","MEAN_ANOMALY":"297.4590","MEAN_ELEMENT_THEORY":"SGP4","COUNTRY_CODE":"US","ARG_OF_PERICENTER":"62.6594","NORAD_CAT_ID":"47360","REV_AT_EPOCH":"5622","OBJECT_ID":"2021-005M","SEMIMAJOR_AXIS":"6925.341","MEAN_MOTION_DOT":"0.00001273","EPOCH":"2022-01-21T12:47:19.209408","OBJECT_NAME":"STARLINK-2070","INCLINATION":"53.0553","DECAY_DATE":null,"LAUNCH_DATE":"2021-01-20","FILE":"3279324","OBJECT_TYPE":"PAYLOAD","CENTER_NAME":"EARTH","TIME_SYSTEM":"UTC","TLE_LINE1":"1 47360U 21005M   22021.53286122  .00001273  00000-0  10432-3 0  9990","RA_OF_ASC_NODE":"317.0065","ECCENTRICITY":"0.00019160","MEAN_MOTION_DDOT":"0.0000000000000"}];
